GPS BIIF-6  (PRN 06)    
1 39741U 14026A   24142.11850610 -.00000077  00000+0  00000+0 0  9995
2 39741  56.7102   0.9158 0031536 317.1468  42.6594  2.00570442 73350
